NORAD_CAT_ID,OBJECT_NAME,OBJECT_TYPE,EPOCH,MEAN_MOTION,ECCENTRICITY,INCLINATION,RA_OF_ASC_NODE,ARG_OF_PERICENTER,MEAN_ANOMALY,BSTAR,MEAN_MOTION_DOT,MEAN_MOTION_DDOT,TLE_LINE0,TLE_LINE1,TLE_LINE2,SEMIMAJOR_AXIS,PERIOD,APOGEE,PERIGEE,DECAYED
51963.0,STARLINK-3675,PAYLOAD,2023-02-07 18:56:04,15.08841767,0.00012,53.2155,43.4905,87.181,272.9319,7.2422e-05,8.65e-06,0.0,0 STARLINK-3675,1 51963U 22025H   23038.78894566  .00000865  00000-0  72422-4 0  9994,2 51963  53.2155  43.4905 0001200  87.1810 272.9319 15.08841767 52311,6917.875,95.437,540.57,538.91,0.0
51963.0,STARLINK-3675,PAYLOAD,2023-02-07 20:31:28,15.08838925,0.0001281,53.2156,43.1934,85.7864,274.3274,4.5983e-05,4.44e-06,0.0,0 STARLINK-3675,1 51963U 22025H   23038.85518756  .00000444  00000-0  45983-4 0  9991,2 51963  53.2156  43.1934 0001281  85.7864 274.3274 15.08838925 51231,6917.884,95.438,540.635,538.862,0.0
51963.0,STARLINK-3675,PAYLOAD,2023-02-07 22:06:51,15.08833376,0.0001269,53.2151,42.896,85.2548,274.8589,-2.7398e-05,-7.24e-06,0.0,0 STARLINK-3675,1 51963U 22025H   23038.92143016 -.00000724  00000-0 -27398-4 0  9995,2 51963  53.2151  42.8960 0001269  85.2548 274.8589 15.08833376 52332,6917.901,95.438,540.644,538.888,0.0
51963.0,STARLINK-3675,PAYLOAD,2023-02-08 07:39:10,15.08839076,0.0001401,53.2155,41.1121,98.3082,261.8069,-1.0338e-06,-3.04e-06,0.0,0 STARLINK-3675,1 51963U 22025H   23039.31886818 -.00000304  00000-0 -10338-5 0  9994,2 51963  53.2155  41.1121 0001401  98.3082 261.8069 15.08839076 51301,6917.883,95.438,540.717,538.779,0.0
51963.0,STARLINK-3675,PAYLOAD,2023-02-09 05:54:33,15.08871256,0.0001491,53.2153,36.9482,98.8529,261.2632,0.00084834,0.00013251,0.0,0 STARLINK-3675,1 51963U 22025H   23040.24621679  .00013251  00000-0  84834-3 0  9993,2 51963  53.2153  36.9482 0001491  98.8529 261.2632 15.08871256 52533,6917.785,95.436,540.681,538.618,0.0
51963.0,STARLINK-3675,PAYLOAD,2023-02-09 07:29:56,15.08881086,0.0001575,53.2149,36.6511,96.7638,263.3533,0.0015221,0.00024047,0.0,0 STARLINK-3675,1 51963U 22025H   23040.31245718  .00024047  00000-0  15221-2 0  9995,2 51963  53.2149  36.6511 0001575  96.7638 263.3533 15.08881086 51454,6917.755,95.435,540.709,538.53,0.0
51963.0,STARLINK-3675,PAYLOAD,2023-02-09 18:37:38,15.08854111,0.0001792,53.2139,34.57,87.8626,272.2571,0.00037624,5.707e-05,0.0,0 STARLINK-3675,1 51963U 22025H   23040.77614018  .00005707  00000-0  37624-3 0  9992,2 51963  53.2139  34.5700 0001792  87.8626 272.2571 15.08854111 52618,6917.837,95.437,540.942,538.463,0.0
51963.0,STARLINK-3675,PAYLOAD,2023-02-09 20:13:01,15.0882896,0.0001424,53.216,34.2723,90.1271,269.9884,-0.00078927,-0.00012823,0.0,0 STARLINK-3675,1 51963U 22025H   23040.84238249 -.00012823  00000-0 -78927-3 0  9998,2 51963  53.2160  34.2723 0001424  90.1271 269.9884 15.08828960 51532,6917.914,95.438,540.764,538.794,0.0
51963.0,STARLINK-3675,PAYLOAD,2023-02-09 21:48:25,15.0883283,0.0001624,53.2151,33.9749,82.4581,277.6595,-0.00043452,-7.195e-05,0.0,0 STARLINK-3675,1 51963U 22025H   23040.90862304 -.00007195  00000-0 -43452-3 0  9991,2 51963  53.2151  33.9749 0001624  82.4581 277.6595 15.08832830 52634,6917.902,95.438,540.891,538.644,0.0
51963.0,STARLINK-3675,PAYLOAD,2023-02-10 02:34:34,15.0883017,0.000151,53.2157,33.0833,84.94,275.1764,0.0012538,0.00019717,0.0,0 STARLINK-3675,1 51963U 22025H   23041.10734578  .00019717  00000-0  12538-2 0  9996,2 51963  53.2157  33.0833 0001510  84.9400 275.1764 15.08830170 51574,6917.91,95.438,540.82,538.731,0.0
51963.0,STARLINK-3675,PAYLOAD,2023-02-10 05:45:21,15.08836086,0.0001587,53.2156,32.4884,81.3834,278.7338,0.0019123,0.00030274,0.0,0 STARLINK-3675,1 51963U 22025H   23041.23982664  .00030274  00000-0  19123-2 0  9999,2 51963  53.2156  32.4884 0001587  81.3834 278.7338 15.08836086 52689,6917.892,95.438,540.855,538.659,0.0
51963.0,STARLINK-3675,PAYLOAD,2023-02-10 18:28:26,15.08847484,0.0001703,53.215,30.1109,85.0903,275.0284,0.0019954,0.00031618,0.0,0 STARLINK-3675,1 51963U 22025H   23041.76974984  .00031618  00000-0  19954-2 0  9998,2 51963  53.2150  30.1109 0001703  85.0903 275.0284 15.08847484 52769,6917.858,95.437,540.901,538.544,0.0
51963.0,STARLINK-3675,PAYLOAD,2023-02-10 20:03:49,15.0883486,0.0001437,53.2156,29.8121,84.6559,275.4597,0.0011626,0.00018261,0.0,0 STARLINK-3675,1 51963U 22025H   23041.83599033  .00018261  00000-0  11626-2 0  9991,2 51963  53.2156  29.8121 0001437  84.6559 275.4597 15.08834860 51685,6917.896,95.438,540.755,538.767,0.0
51963.0,STARLINK-3675,PAYLOAD,2023-02-10 21:39:12,15.08835742,0.0001367,53.2155,29.5147,77.3317,282.7828,0.00088184,0.00013773,0.0,0 STARLINK-3675,1 51963U 22025H   23041.90222936  .00013773  00000-0  88184-3 0  9991,2 51963  53.2155  29.5147 0001367  77.3317 282.7828 15.08835742 52782,6917.893,95.438,540.704,538.813,0.0
51963.0,STARLINK-3675,PAYLOAD,2023-02-11 10:22:17,15.08885034,0.0001335,53.216,27.1353,84.6599,275.4545,0.0034615,0.00055302,0.0,0 STARLINK-3675,1 51963U 22025H   23042.43214435  .00055302  00000-0  34615-2 0  9998,2 51963  53.2160  27.1353 0001335  84.6599 275.4545 15.08885034 52862,6917.743,95.435,540.531,538.684,0.0
51963.0,STARLINK-3675,PAYLOAD,2023-02-12 05:26:55,15.08863219,0.0001409,53.2165,23.5674,109.7399,250.3746,0.0028078,0.0004471,0.0,0 STARLINK-3675,1 51963U 22025H   23043.22702953  .00044710  00000-0  28078-2 0  9990,2 51963  53.2165  23.5674 0001409 109.7399 250.3746 15.08863219 52981,6917.809,95.436,540.649,538.7,0.0
51963.0,STARLINK-3675,PAYLOAD,2023-02-12 10:13:04,15.0887611,0.0001446,53.2167,22.6757,111.9152,248.1994,0.0026281,0.00041828,0.0,0 STARLINK-3675,1 51963U 22025H   23043.42574645  .00041828  00000-0  26281-2 0  9998,2 51963  53.2167  22.6757 0001446 111.9152 248.1994 15.08876110 51925,6917.77,95.435,540.635,538.635,0.0
51963.0,STARLINK-3675,PAYLOAD,2023-02-12 14:59:14,15.08831822,0.0002453,53.2176,21.7837,85.6122,274.5151,0.00094321,0.00014752,0.0,0 STARLINK-3675,1 51963U 22025H   23043.62447626  .00014752  00000-0  94321-3 0  9995,2 51963  53.2176  21.7837 0002453  85.6122 274.5151 15.08831822 53041,6917.905,95.438,541.467,538.073,0.0
51963.0,STARLINK-3675,PAYLOAD,2023-02-12 22:56:10,15.0884231,0.000277,53.2167,20.2971,90.1465,269.9844,0.003398,0.00054213,0.0,0 STARLINK-3675,1 51963U 22025H   23043.95568003  .00054213  00000-0  33980-2 0  9993,2 51963  53.2167  20.2971 0002770  90.1465 269.9844 15.08842310 53093,6917.873,95.437,541.655,537.822,0.0
51963.0,STARLINK-3675,PAYLOAD,2023-02-13 10:03:52,15.08861598,0.0001401,53.2161,18.2157,93.9604,266.1548,0.0027898,0.00044418,0.0,0 STARLINK-3675,1 51963U 22025H   23044.41935693  .00044418  00000-0  27898-2 0  9995,2 51963  53.2161  18.2157 0001401  93.9604 266.1548 15.08861598 53163,6917.814,95.436,540.649,538.71,0.0
51963.0,STARLINK-3675,PAYLOAD,2023-02-13 14:50:02,15.08826664,0.0003245,53.2166,17.3218,79.1562,280.9795,0.00072686,0.00011295,0.0,0 STARLINK-3675,1 51963U 22025H   23044.61808639  .00011295  00000-0  72686-3 0  9999,2 51963  53.2166  17.3218 0003245  79.1562 280.9795 15.08826664 53199,6917.921,95.438,542.031,537.541,0.0
51963.0,STARLINK-3675,PAYLOAD,2023-02-14 08:19:16,15.08871732,0.0001282,53.2169,14.0518,80.6057,279.508,0.0021405,0.00033972,0.0,0 STARLINK-3675,1 51963U 22025H   23045.34671572  .00033972  00000-0  21405-2 0  9992,2 51963  53.2169  14.0518 0001282  80.6057 279.5080 15.08871732 53304,6917.783,95.436,540.535,538.762,0.0
51963.0,STARLINK-3675,PAYLOAD,2023-02-14 14:40:49,15.08840981,0.0002411,53.2174,12.8588,63.1533,296.9705,0.0010652,0.00016706,0.0,0 STARLINK-3675,1 51963U 22025H   23045.61167992  .00016706  00000-0  10652-2 0  9996,2 51963  53.2174  12.8588 0002411  63.1533 296.9705 15.08840981 53346,6917.877,95.437,541.41,538.074,0.0
51963.0,STARLINK-3675,PAYLOAD,2023-02-15 04:59:17,15.08859715,9.63e-05,53.2157,10.1868,74.96,285.1498,0.0024776,0.00039385,0.0,0 STARLINK-3675,1 51963U 22025H   23046.20783872  .00039385  00000-0  24776-2 0  9993,2 51963  53.2157  10.1868 0000963  74.9600 285.1498 15.08859715 52347,6917.82,95.436,540.351,539.019,0.0
51963.0,STARLINK-3675,PAYLOAD,2023-02-15 14:31:36,15.08868285,9.64e-05,53.2162,8.4023,88.8542,271.256,0.0021191,0.00033625,0.0,0 STARLINK-3675,1 51963U 22025H   23046.60527815  .00033625  00000-0  21191-2 0  9999,2 51963  53.2162   8.4023 0000964  88.8542 271.2560 15.08868285 53491,6917.794,95.436,540.326,538.992,0.0
51963.0,STARLINK-3675,PAYLOAD,2023-02-15 20:53:08,15.08875433,0.0001333,53.216,7.2154,87.073,273.0415,0.0021266,0.00033752,0.0,0 STARLINK-3675,1 51963U 22025H   23046.87023596  .00033752  00000-0  21266-2 0  9999,2 51963  53.2160   7.2154 0001333  87.0730 273.0415 15.08875433 52448,6917.772,95.435,540.559,538.715,0.0
51963.0,STARLINK-3675,PAYLOAD,2023-02-16 04:50:03,15.08896278,0.000124,53.2155,5.7265,91.6468,268.4666,0.0027073,0.00043129,0.0,0 STARLINK-3675,1 51963U 22025H   23047.20142674  .00043129  00000-0  27073-2 0  9997,2 51963  53.2155   5.7265 0001240  91.6468 268.4666 15.08896278 53586,6917.708,95.434,540.431,538.716,0.0
51963.0,STARLINK-3675,PAYLOAD,2023-02-16 14:22:22,15.08808666,0.0001584,53.2168,3.9376,86.2961,273.8212,-0.0018646,-0.00029815,0.0,0 STARLINK-3675,1 51963U 22025H   23047.59887488 -.00029815  00000-0 -18646-2 0  9992,2 51963  53.2168   3.9376 0001584  86.2961 273.8212 15.08808666 52559,6917.976,95.44,540.937,538.745,0.0
51963.0,STARLINK-3675,PAYLOAD,2023-02-17 03:05:28,15.08814294,0.0001426,53.2154,1.5622,67.3077,292.8066,0.0020521,0.00032499,0.0,0 STARLINK-3675,1 51963U 22025H   23048.12880467  .00032499  00000-0  20521-2 0  9997,2 51963  53.2154   1.5622 0001426  67.3077 292.8066 15.08814294 53727,6917.959,95.439,540.81,538.837,0.0
51963.0,STARLINK-3675,PAYLOAD,2023-02-17 14:13:11,15.08821075,0.0002075,53.2163,359.4841,62.5165,297.6038,0.0013629,0.00021458,0.0,0 STARLINK-3675,1 51963U 22025H   23048.59249691  .00021458  00000-0  13629-2 0  9990,2 51963  53.2163 359.4841 0002075  62.5165 297.6038 15.08821075 53795,6917.938,95.439,541.239,538.368,0.0
